{"type": "FeatureCollection", "features": [ {"type": "Feature", "properties": {"norad_id": 42917, "name": "QZS-3 (QZSS/PRN 199)", "group": "gnss", "lat": -0.04270356106236446, "lon": -176.60779528596944, "alt_km": 35783.547194611325, "timestamp": "2025-12-07T22:37:43.322091+00:00", "meta": {"OBJECT_NAME": "QZS-3 (QZSS/PRN 199)", "OBJECT_ID": "2017-048A", "EPOCH": "2025-12-07T02:17:38.548320", "MEAN_MOTION": 1.00274284, "ECCENTRICITY": 0.00022142, "INCLINATION": 0.0674, "RA_OF_ASC_NODE": 212.1844, "ARG_OF_PERICENTER": 49.1363, "MEAN_ANOMALY": 336.2407, "EPHEMERIS_TYPE": 0, "CLASSIFICATION_TYPE": "U", "NORAD_CAT_ID": 42917, "ELEMENT_SET_NO": 999, "REV_AT_EPOCH": 3033, "BSTAR": 0, "MEAN_MOTION_DOT": -3.43e-06, "MEAN_MOTION_DDOT": 0}, "tle": {"line1": "1 42917U 17048A   25341.09558505 -.00000343  00000+0  00000+0 0  9994", "line2": "2 42917   0.0674 212.1844 0002214  49.1363 336.2407  1.00274284 30331"}}, "geometry": {"type": "Point", "coordinates": [-176.60779528596944, -0.04270356106236446]}}, {"type": "Feature", "properties": {"norad_id": 42939, "name": "COSMOS 2522 (752)", "group": "gnss", "lat": -29.232513042896294, "lon": 34.19362855931369, "alt_km": 19117.63552899214, "timestamp": "2025-12-07T22:37:43.322106+00:00", "meta": {"OBJECT_NAME": "COSMOS 2522 (752)", "OBJECT_ID": "2017-055A", "EPOCH": "2025-12-02T23:20:47.282208", "MEAN_MOTION": 2.1310185, "ECCENTRICITY": 0.00065327, "INCLINATION": 64.0758, "RA_OF_ASC_NODE": 198.5618, "ARG_OF_PERICENTER": 226.0683, "MEAN_ANOMALY": 133.9743, "EPHEMERIS_TYPE": 0, "CLASSIFICATION_TYPE": "U", "NORAD_CAT_ID": 42939, "ELEMENT_SET_NO": 999, "REV_AT_EPOCH": 6379, "BSTAR": 0, "MEAN_MOTION_DOT": 1.07e-06, "MEAN_MOTION_DDOT": 0}, "tle": {"line1": "1 42939U 17055A   25336.97276947  .00000107  00000+0  00000+0 0  9991", "line2": "2 42939  64.0758 198.5618 0006532 226.0683 133.9743  2.13101850 63796"}}, "geometry": {"type": "Point", "coordinates": [34.19362855931369, -29.232513042896294]}}, {"type": "Feature", "properties": {"norad_id": 42965, "name": "QZS-4 (QZSS/PRN 195)", "group": "gnss", "lat": -12.230404957845126, "lon": -179.2182909618477, "alt_km": 34607.945387781765, "timestamp": "2025-12-07T22:37:43.322118+00:00", "meta": {"OBJECT_NAME": "QZS-4 (QZSS/PRN 195)", "OBJECT_ID": "2017-062A", "EPOCH": "2025-12-06T21:07:43.800384", "MEAN_MOTION": 1.00253739, "ECCENTRICITY": 0.07524502, "INCLINATION": 40.2288, "RA_OF_ASC_NODE": 345.9456, "ARG_OF_PERICENTER": 271.3923, "MEAN_ANOMALY": 272.3694, "EPHEMERIS_TYPE": 0, "CLASSIFICATION_TYPE": "U", "NORAD_CAT_ID": 42965, "ELEMENT_SET_NO": 999, "REV_AT_EPOCH": 2987, "BSTAR": 0, "MEAN_MOTION_DOT": -3.44e-06, "MEAN_MOTION_DDOT": 0}, "tle": {"line1": "1 42965U 17062A   25340.88036806 -.00000344  00000+0  00000+0 0  9995", "line2": "2 42965  40.2288 345.9456 0752450 271.3923 272.3694  1.00253739 29877"}}, "geometry": {"type": "Point", "coordinates": [-179.2182909618477, -12.230404957845126]}}, {"type": "Feature", "properties": {"norad_id": 43001, "name": "BEIDOU-3 M1 (C19)", "group": "gnss", "lat": -18.953351951549127, "lon": 56.28677566919309, "alt_km": 21509.796697138012, "timestamp": "2025-12-07T22:37:43.322129+00:00", "meta": {"OBJECT_NAME": "BEIDOU-3 M1 (C19)", "OBJECT_ID": "2017-069A", "EPOCH": "2025-12-06T08:47:12.602112", "MEAN_MOTION": 1.86230764, "ECCENTRICITY": 0.00089894, "INCLINATION": 56.5217, "RA_OF_ASC_NODE": 69.4444, "ARG_OF_PERICENTER": 303.7678, "MEAN_ANOMALY": 56.1608, "EPHEMERIS_TYPE": 0, "CLASSIFICATION_TYPE": "U", "NORAD_CAT_ID": 43001, "ELEMENT_SET_NO": 999, "REV_AT_EPOCH": 5501, "BSTAR": 0, "MEAN_MOTION_DOT": -4.5e-07, "MEAN_MOTION_DDOT": 0}, "tle": {"line1": "1 43001U 17069A   25340.36611808 -.00000045  00000+0  00000+0 0  9996", "line2": "2 43001  56.5217  69.4444 0008989 303.7678  56.1608  1.86230764 55019"}}, "geometry": {"type": "Point", "coordinates": [56.28677566919309, -18.953351951549127]}}, {"type": "Feature", "properties": {"norad_id": 43002, "name": "BEIDOU-3 M2 (C20)", "group": "gnss", "lat": 15.325063787394496, "lon": 79.87050366495943, "alt_km": 21514.37984039577, "timestamp": "2025-12-07T22:37:43.322141+00:00", "meta": {"OBJECT_NAME": "BEIDOU-3 M2 (C20)", "OBJECT_ID": "2017-069B", "EPOCH": "2025-12-06T07:18:26.076672", "MEAN_MOTION": 1.8623066, "ECCENTRICITY": 0.00062871, "INCLINATION": 56.5209, "RA_OF_ASC_NODE": 69.4828, "ARG_OF_PERICENTER": 331.4917, "MEAN_ANOMALY": 28.4877, "EPHEMERIS_TYPE": 0, "CLASSIFICATION_TYPE": "U", "NORAD_CAT_ID": 43002, "ELEMENT_SET_NO": 999, "REV_AT_EPOCH": 5500, "BSTAR": 0, "MEAN_MOTION_DOT": -4.6e-07, "MEAN_MOTION_DDOT": 0}, "tle": {"line1": "1 43002U 17069B   25340.30446848 -.00000046  00000+0  00000+0 0  9992", "line2": "2 43002  56.5209  69.4828 0006287 331.4917  28.4877  1.86230660 55004"}}, "geometry": {"type": "Point", "coordinates": [79.87050366495943, 15.325063787394496]}}, {"type": "Feature", "properties": {"norad_id": 43055, "name": "GSAT0215 (GALILEO 19)", "group": "gnss", "lat": 54.95760161702436, "lon": -36.47681884605416, "alt_km": 23229.915736218365, "timestamp": "2025-12-07T22:37:43.322152+00:00", "meta": {"OBJECT_NAME": "GSAT0215 (GALILEO 19)", "OBJECT_ID": "2017-079A", "EPOCH": "2025-12-06T00:43:24.455424", "MEAN_MOTION": 1.70473755, "ECCENTRICITY": 0.00048437, "INCLINATION": 55.1369, "RA_OF_ASC_NODE": 226.8228, "ARG_OF_PERICENTER": 284.5496, "MEAN_ANOMALY": 75.4946, "EPHEMERIS_TYPE": 0, "CLASSIFICATION_TYPE": "U", "NORAD_CAT_ID": 43055, "ELEMENT_SET_NO": 999, "REV_AT_EPOCH": 4969, "BSTAR": 0, "MEAN_MOTION_DOT": 3.4e-07, "MEAN_MOTION_DDOT": 0}, "tle": {"line1": "1 43055U 17079A   25340.03014416  .00000034  00000+0  00000+0 0  9999", "line2": "2 43055  55.1369 226.8228 0004843 284.5496  75.4946  1.70473755 49697"}}, "geometry": {"type": "Point", "coordinates": [-36.47681884605416, 54.95760161702436]}}, {"type": "Feature", "properties": {"norad_id": 43056, "name": "GSAT0216 (GALILEO 20)", "group": "gnss", "lat": -54.82805291158468, "lon": 145.48602041683336, "alt_km": 23222.58441805312, "timestamp": "2025-12-07T22:37:43.322163+00:00", "meta": {"OBJECT_NAME": "GSAT0216 (GALILEO 20)", "OBJECT_ID": "2017-079B", "EPOCH": "2025-12-06T21:47:45.694464", "MEAN_MOTION": 1.70473871, "ECCENTRICITY": 0.00025337, "INCLINATION": 55.1324, "RA_OF_ASC_NODE": 226.7984, "ARG_OF_PERICENTER": 317.6549, "MEAN_ANOMALY": 42.4219, "EPHEMERIS_TYPE": 0, "CLASSIFICATION_TYPE": "U", "NORAD_CAT_ID": 43056, "ELEMENT_SET_NO": 999, "REV_AT_EPOCH": 4972, "BSTAR": 0, "MEAN_MOTION_DOT": 2.8e-07, "MEAN_MOTION_DDOT": 0}, "tle": {"line1": "1 43056U 17079B   25340.90816776  .00000028  00000+0  00000+0 0  9998", "line2": "2 43056  55.1324 226.7984 0002533 317.6549  42.4219  1.70473871 49728"}}, "geometry": {"type": "Point", "coordinates": [145.48602041683336, -54.82805291158468]}}, {"type": "Feature", "properties": {"norad_id": 43057, "name": "GSAT0217 (GALILEO 21)", "group": "gnss", "lat": 32.12072546749897, "lon": 20.84330773450726, "alt_km": 23225.946848824522, "timestamp": "2025-12-07T22:37:43.322178+00:00", "meta": {"OBJECT_NAME": "GSAT0217 (GALILEO 21)", "OBJECT_ID": "2017-079C", "EPOCH": "2025-12-05T22:56:13.502976", "MEAN_MOTION": 1.70473847, "ECCENTRICITY": 0.00027948, "INCLINATION": 55.1308, "RA_OF_ASC_NODE": 226.8227, "ARG_OF_PERICENTER": 341.4584, "MEAN_ANOMALY": 18.6294, "EPHEMERIS_TYPE": 0, "CLASSIFICATION_TYPE": "U", "NORAD_CAT_ID": 43057, "ELEMENT_SET_NO": 999, "REV_AT_EPOCH": 4969, "BSTAR": 0, "MEAN_MOTION_DOT": 3.5e-07, "MEAN_MOTION_DDOT": 0}, "tle": {"line1": "1 43057U 17079C   25339.95571184  .00000035  00000+0  00000+0 0  9991", "line2": "2 43057  55.1308 226.8227 0002794 341.4584  18.6294  1.70473847 49692"}}, "geometry": {"type": "Point", "coordinates": [20.84330773450726, 32.12072546749897]}}, {"type": "Feature", "properties": {"norad_id": 43058, "name": "GSAT0218 (GALILEO 22)", "group": "gnss", "lat": 3.7055121632994115, "lon": -130.63896327984088, "alt_km": 23217.63597216549, "timestamp": "2025-12-07T22:37:43.322189+00:00", "meta": {"OBJECT_NAME": "GSAT0218 (GALILEO 22)", "OBJECT_ID": "2017-079D", "EPOCH": "2025-12-06T18:17:46.482720", "MEAN_MOTION": 1.70473862, "ECCENTRICITY": 0.00028449, "INCLINATION": 55.1307, "RA_OF_ASC_NODE": 226.7982, "ARG_OF_PERICENTER": 305.5375, "MEAN_ANOMALY": 54.5328, "EPHEMERIS_TYPE": 0, "CLASSIFICATION_TYPE": "U", "NORAD_CAT_ID": 43058, "ELEMENT_SET_NO": 999, "REV_AT_EPOCH": 4973, "BSTAR": 0, "MEAN_MOTION_DOT": 2.9e-07, "MEAN_MOTION_DDOT": 0}, "tle": {"line1": "1 43058U 17079D   25340.76234355  .00000029  00000+0  00000+0 0  9992", "line2": "2 43058  55.1307 226.7982 0002844 305.5375  54.5328  1.70473862 49733"}}, "geometry": {"type": "Point", "coordinates": [-130.63896327984088, 3.7055121632994115]}}, {"type": "Feature", "properties": {"norad_id": 43107, "name": "BEIDOU-3 M7 (C27)", "group": "gnss", "lat": -8.774026617420729, "lon": 135.28104672633486, "alt_km": 21533.11792720491, "timestamp": "2025-12-07T22:37:43.322201+00:00", "meta": {"OBJECT_NAME": "BEIDOU-3 M7 (C27)", "OBJECT_ID": "2018-003A", "EPOCH": "2025-12-05T12:15:18.978048", "MEAN_MOTION": 1.86232243, "ECCENTRICITY": 0.00026626, "INCLINATION": 54.5032, "RA_OF_ASC_NODE": 309.0664, "ARG_OF_PERICENTER": 69.7812, "MEAN_ANOMALY": 290.2304, "EPHEMERIS_TYPE": 0, "CLASSIFICATION_TYPE": "U", "NORAD_CAT_ID": 43107, "ELEMENT_SET_NO": 999, "REV_AT_EPOCH": 5374, "BSTAR": 0, "MEAN_MOTION_DOT": -7.1e-07, "MEAN_MOTION_DDOT": 0}, "tle": {"line1": "1 43107U 18003A   25339.51063632 -.00000071  00000+0  00000+0 0  9992", "line2": "2 43107  54.5032 309.0664 0002662  69.7812 290.2304  1.86232243 53743"}}, "geometry": {"type": "Point", "coordinates": [135.28104672633486, -8.774026617420729]}}]}